NORAD_CAT_ID,OBJECT_NAME,OBJECT_TYPE,EPOCH,MEAN_MOTION,ECCENTRICITY,INCLINATION,RA_OF_ASC_NODE,ARG_OF_PERICENTER,MEAN_ANOMALY,BSTAR,MEAN_MOTION_DOT,MEAN_MOTION_DDOT,TLE_LINE0,TLE_LINE1,TLE_LINE2,SEMIMAJOR_AXIS,PERIOD,APOGEE,PERIGEE,DECAYED
52296.0,STARLINK-3766,PAYLOAD,2022-12-13 11:34:15,15.08837915,0.0002135,53.2191,6.2696,42.1198,317.9958,-5.7268e-05,-1.2e-05,0.0,0 STARLINK-3766,1 52296U 22041AM  22347.48212437 -.00001200  00000-0 -57268-4 0  9999,2 52296  53.2191   6.2696 0002135  42.1198 317.9958 15.08837915 36033,6917.887,95.438,541.229,538.275,0.0
52296.0,STARLINK-3766,PAYLOAD,2022-12-13 17:55:47,15.08845704,0.000247,53.2196,5.0802,37.2731,322.8432,-4.7951e-05,-1.052e-05,0.0,0 STARLINK-3766,1 52296U 22041AM  22347.74707894 -.00001052  00000-0 -47951-4 0  9997,2 52296  53.2196   5.0802 0002470  37.2731 322.8432 15.08845704 36075,6917.863,95.437,541.437,538.019,0.0
52296.0,STARLINK-3766,PAYLOAD,2022-12-14 08:14:17,15.08825284,0.0002095,53.2173,2.4036,33.697,326.4155,-0.00010488,-1.956e-05,0.0,0 STARLINK-3766,1 52296U 22041AM  22348.34325480 -.00001956  00000-0 -10488-3 0  9998,2 52296  53.2173   2.4036 0002095  33.6970 326.4155 15.08825284 37386,6917.925,95.438,541.24,538.341,0.0
52296.0,STARLINK-3766,PAYLOAD,2022-12-14 11:25:03,15.08826674,0.0002119,53.2172,1.8086,36.1497,323.9638,-8.8024e-05,-1.688e-05,0.0,0 STARLINK-3766,1 52296U 22041AM  22348.47573458 -.00001688  00000-0 -88024-4 0  9996,2 52296  53.2172   1.8086 0002119  36.1497 323.9638 15.08826674 36181,6917.920999999999,95.438,541.252,538.32,0.0
52296.0,STARLINK-3766,PAYLOAD,2022-12-14 17:46:35,15.08832088,0.0002209,53.2182,0.62,38.9699,321.1452,-3.6215e-05,-8.64e-06,0.0,0 STARLINK-3766,1 52296U 22041AM  22348.74069170 -.00000864  00000-0 -36215-4 0  9997,2 52296  53.2182   0.6200 0002209  38.9699 321.1452 15.08832088 37441,6917.905,95.438,541.298,538.241,0.0
52296.0,STARLINK-3766,PAYLOAD,2022-12-15 08:05:03,15.08840062,0.0002141,53.2179,357.9433,37.7647,322.3495,0.00019054,2.746e-05,0.0,0 STARLINK-3766,1 52296U 22041AM  22349.33684308  .00002746  00000-0  19054-3 0  9999,2 52296  53.2179 357.9433 0002141  37.7647 322.3495 15.08840062 37539,6917.88,95.438,541.226,538.264,0.0
52296.0,STARLINK-3766,PAYLOAD,2022-12-15 09:40:26,15.08841503,0.0002159,53.2179,357.6459,37.787,322.3274,0.00022281,3.26e-05,0.0,0 STARLINK-3766,1 52296U 22041AM  22349.40308240  .00003260  00000-0  22281-3 0  9993,2 52296  53.2179 357.6459 0002159  37.7870 322.3274 15.08841503 36323,6917.876,95.437,541.234,538.247,0.0
52296.0,STARLINK-3766,PAYLOAD,2022-12-15 17:37:21,15.08850365,0.0002241,53.2179,356.1591,37.3073,322.8075,0.00023442,3.446e-05,0.0,0 STARLINK-3766,1 52296U 22041AM  22349.73427745  .00003446  00000-0  23442-3 0  9997,2 52296  53.2179 356.1591 0002241  37.3073 322.8075 15.08850365 36372,6917.849,95.437,541.264,538.163,0.0
52296.0,STARLINK-3766,PAYLOAD,2022-12-16 09:31:13,15.08842921,0.0002263,53.2181,353.1845,38.6713,321.4441,0.00024814,3.663e-05,0.0,0 STARLINK-3766,1 52296U 22041AM  22350.39668257  .00003663  00000-0  24814-3 0  9991,2 52296  53.2181 353.1845 0002263  38.6713 321.4441 15.08842921 37690,6917.871,95.437,541.302,538.1709999999998,0.0
52296.0,STARLINK-3766,PAYLOAD,2022-12-16 17:28:08,15.08848519,0.000233,53.2176,351.6988,36.3313,323.7837,5.2846e-05,5.53e-06,0.0,0 STARLINK-3766,1 52296U 22041AM  22350.72787820  .00000553  00000-0  52846-4 0  9998,2 52296  53.2176 351.6988 0002330  36.3313 323.7837 15.08848519 36525,6917.854,95.437,541.331,538.107,0.0
52296.0,STARLINK-3766,PAYLOAD,2022-12-17 09:22:00,15.0884031,0.0002145,53.2184,348.7242,33.5156,326.5971,-4.9666e-05,-1.079e-05,0.0,0 STARLINK-3766,1 52296U 22041AM  22351.39028646 -.00001079  00000-0 -49666-4 0  9998,2 52296  53.2184 348.7242 0002145  33.5156 326.5971 15.08840310 36624,6917.879,95.438,541.2280000000002,538.261,0.0
52296.0,STARLINK-3766,PAYLOAD,2022-12-17 17:18:56,15.08843307,0.0002191,53.2187,347.2376,36.6969,323.4173,-5.5568e-05,-1.173e-05,0.0,0 STARLINK-3766,1 52296U 22041AM  22351.72148415 -.00001173  00000-0 -55568-4 0  9995,2 52296  53.2187 347.2376 0002191  36.6969 323.4173 15.08843307 36670,6917.87,95.437,541.251,538.22,0.0
52296.0,STARLINK-3766,PAYLOAD,2022-12-18 10:48:10,15.08837454,0.0002237,53.2181,343.967,37.3184,322.7963,4.2123e-05,3.82e-06,0.0,0 STARLINK-3766,1 52296U 22041AM  22352.45012632  .00000382  00000-0  42123-4 0  9999,2 52296  53.2181 343.9670 0002237  37.3184 322.7963 15.08837454 38006,6917.888000000001,95.438,541.3009999999998,538.206,0.0
52296.0,STARLINK-3766,PAYLOAD,2022-12-18 17:09:42,15.08843538,0.0002006,53.2181,342.7778,40.2637,319.8504,9.1216e-05,1.164e-05,0.0,0 STARLINK-3766,1 52296U 22041AM  22352.71508094  .00001164  00000-0  91216-4 0  9996,2 52296  53.2181 342.7778 0002006  40.2637 319.8504 15.08843538 36828,6917.87,95.437,541.122,538.347,0.0
52296.0,STARLINK-3766,PAYLOAD,2022-12-20 05:43:34,15.08848756,0.0002114,53.218,335.9383,37.7276,322.3864,0.00022929,3.364e-05,0.0,0 STARLINK-3766,1 52296U 22041AM  22354.23859425  .00003364  00000-0  22929-3 0  9990,2 52296  53.2180 335.9383 0002114  37.7276 322.3864 15.08848756 38279,6917.854,95.437,541.181,538.256,0.0
52296.0,STARLINK-3766,PAYLOAD,2022-12-20 07:18:57,15.08844974,0.0002099,53.2179,335.6409,32.2779,327.8341,0.00017518,2.501e-05,0.0,0 STARLINK-3766,1 52296U 22041AM  22354.30483764  .00002501  00000-0  17518-3 0  9997,2 52296  53.2179 335.6409 0002099  32.2779 327.8341 15.08844974 37067,6917.865,95.437,541.182,538.278,0.0
52296.0,STARLINK-3766,PAYLOAD,2022-12-21 05:34:23,15.08825404,0.0001975,53.2192,331.476,21.1692,338.9381,-5.2032e-05,-1.116e-05,0.0,0 STARLINK-3766,1 52296U 22041AM  22355.23221441 -.00001116  00000-0 -52032-4 0  9996,2 52296  53.2192 331.4760 0001975  21.1692 338.9381 15.08825404 38424,6917.925,95.438,541.156,538.424,0.0
52296.0,STARLINK-3766,PAYLOAD,2022-12-21 08:45:09,15.08829123,0.0002037,53.218,330.8829,29.603,330.5077,-9.6108e-05,-1.817e-05,0.0,0 STARLINK-3766,1 52296U 22041AM  22355.36469377 -.00001817  00000-0 -96108-4 0  9992,2 52296  53.2180 330.8829 0002037  29.6030 330.5077 15.08829123 37228,6917.9140000000025,95.438,541.188,538.369,0.0
52296.0,STARLINK-3766,PAYLOAD,2022-12-22 05:25:09,15.08843703,0.000216,53.2185,327.0177,38.7013,321.4134,-2.9473e-05,-7.57e-06,0.0,0 STARLINK-3766,1 52296U 22041AM  22356.22580696 -.00000757  00000-0 -29473-4 0  9999,2 52296  53.2185 327.0177 0002160  38.7013 321.4134 15.08843703 38578,6917.869000000002,95.437,541.2280000000002,538.24,0.0
52296.0,STARLINK-3766,PAYLOAD,2022-12-22 08:35:56,15.088339,0.0002061,53.2181,326.4226,32.7292,327.3828,-7.314600000000001e-05,-1.452e-05,0.0,0 STARLINK-3766,1 52296U 22041AM  22356.35829390 -.00001452  00000-0 -73146-4 0  9999,2 52296  53.2181 326.4226 0002061  32.7292 327.3828 15.08833900 38590,6917.899,95.438,541.19,538.3380000000002,0.0
52296.0,STARLINK-3766,PAYLOAD,2022-12-22 21:19:01,15.0883024,0.0002124,53.2183,324.0437,32.3375,327.7747,0.00019724,2.851e-05,0.0,0 STARLINK-3766,1 52296U 22041AM  22356.88821066  .00002851  00000-0  19724-3 0  9992,2 52296  53.2183 324.0437 0002124  32.3375 327.7747 15.08830240 37450,6917.91,95.438,541.245,538.306,0.0
52296.0,STARLINK-3766,PAYLOAD,2022-12-23 02:05:14,15.08777562,0.0002357,53.2181,323.1519,27.4517,332.6599,-0.00025354,-4.314e-05,0.0,0 STARLINK-3766,1 52296U 22041AM  22357.08697904 -.00004314  00000-0 -25354-3 0  9991,2 52296  53.2181 323.1519 0002357  27.4517 332.6599 15.08777562 38706,6918.071,95.442,541.567,538.306,0.0
52296.0,STARLINK-3766,PAYLOAD,2022-12-23 08:26:45,15.0881449,0.0001729,53.2179,321.9621,34.2167,325.8936,6.1065e-05,6.83e-06,0.0,0 STARLINK-3766,1 52296U 22041AM  22357.35191342  .00000683  00000-0  61065-4 0  9999,2 52296  53.2179 321.9621 0001729  34.2167 325.8936 15.08814490 38747,6917.958000000001,95.439,541.019,538.627,0.0
52296.0,STARLINK-3766,PAYLOAD,2022-12-23 21:09:50,15.08828025,0.0001894,53.2188,319.5836,39.3557,320.7573,0.00012734,1.738e-05,0.0,0 STARLINK-3766,1 52296U 22041AM  22357.88183047  .00001738  00000-0  12734-3 0  9990,2 52296  53.2188 319.5836 0001894  39.3557 320.7573 15.08828025 37604,6917.917,95.438,541.092,538.472,0.0
52296.0,STARLINK-3766,PAYLOAD,2022-12-23 22:45:13,15.08830091,0.0001797,53.2177,319.2869,40.5139,319.5987,0.00016496,2.338e-05,0.0,0 STARLINK-3766,1 52296U 22041AM  22357.94806841  .00002338  00000-0  16496-3 0  9997,2 52296  53.2177 319.2869 0001797  40.5139 319.5987 15.08830091 38834,6917.911,95.438,541.019,538.533,0.0
52296.0,STARLINK-3766,PAYLOAD,2022-12-24 06:42:08,15.08842509,0.0002151,53.2177,317.7985,44.7165,315.4,0.00024298,3.581e-05,0.0,0 STARLINK-3766,1 52296U 22041AM  22358.27926016  .00003581  00000-0  24298-3 0  9991,2 52296  53.2177 317.7985 0002151  44.7165 315.4000 15.08842509 38889,6917.873000000001,95.437,541.226,538.25,0.0
52296.0,STARLINK-3766,PAYLOAD,2022-12-24 21:00:36,15.08848019,0.0002141,53.2179,315.1227,41.8601,318.2554,0.00016614,2.357e-05,0.0,0 STARLINK-3766,1 52296U 22041AM  22358.87541951  .00002357  00000-0  16614-3 0  9991,2 52296  53.2179 315.1227 0002141  41.8601 318.2554 15.08848019 37756,6917.856,95.437,541.202,538.24,0.0
52296.0,STARLINK-3766,PAYLOAD,2022-12-25 06:32:55,15.08838737,0.0002137,53.2168,313.3408,39.9271,320.1878,0.00057943,8.945e-05,0.0,0 STARLINK-3766,1 52296U 22041AM  22359.27286761  .00008945  00000-0  57943-3 0  9990,2 52296  53.2168 313.3408 0002137  39.9271 320.1878 15.08838737 39031,6917.884,95.438,541.2280000000002,538.271,0.0
52296.0,STARLINK-3766,PAYLOAD,2022-12-25 20:51:23,15.08840749,0.0001895,53.2165,310.6632,46.0781,314.0367,3.9263e-05,3.37e-06,0.0,0 STARLINK-3766,1 52296U 22041AM  22359.86902468  .00000337  00000-0  39263-4 0  9997,2 52296  53.2165 310.6632 0001895  46.0781 314.0367 15.08840749 37907,6917.878000000002,95.438,541.054,538.432,0.0
